SYMPHONIE 2             
1 08132U 75077A   26115.77058562 -.00000165  00000+0  00000+0 0  9996
2 08132   4.1734 275.2654 0005639  58.8253 319.9214  0.99985618141932
MOLNIYA 2-14            
1 08195U 75081A   26114.02966343  .00001031  00000+0  00000+0 0  9994
2 08195  64.6612  39.4114 6850510 283.6649  13.6900  2.02060790371315
INTELSAT 4A-F1          
1 08330U 75091A   26115.71661995  .00000103  00000+0  00000+0 0  9997
2 08330   7.9815 304.6663 0003736 267.7064 294.7498  0.99926789120943
ATLAS CENTAUR R/B       
1 08331U 75091B   26115.37449668  .00000029  00000+0  14894-3 0  9998
2 08331  21.4416 182.7477 7212586 131.5816 317.4138  2.22312553407628
COSMOS 775              
1 08357U 75097A   26115.95252912  .00000124  00000+0  00000+0 0  9996
2 08357   2.4935 262.0329 0011075 179.9695 160.1761  1.00219138131239
GOES 1 (SMS-C)          
1 08366U 75100A   26115.61138704  .00000022  00000+0  00000+0 0  9993
2 08366   4.7412 278.1276 0004156   1.6477  27.9665  1.00250049184545
SATCOM 1                
1 08476U 75117A   26115.90861282 -.00000201  00000+0  00000+0 0  9999
2 08476   8.1026 304.9681 0013164 281.8589 238.5020  0.99600342 45845
OPS 3165 (DSP 5)        
1 08482U 75118A   26115.86641834  .00000110  00000+0  00000+0 0  9999
2 08482   2.4263 259.3108 0033230  27.6438 281.5410  1.00485102 25920
RADUGA 1                
1 08513U 75123A   26115.95808405 -.00000093  00000+0  00000+0 0  9990
2 08513   2.9362 267.3304 0004155 295.0227  71.0502  1.00246473194295
TITAN 3C TRANSTAGE R/B  
1 08516U 75118C   26115.83838339 -.00000364  00000+0  00000+0 0  9994
2 08516   2.4036 259.6291 0011557 213.8794 145.7945  1.00549825 25257
CTS                     
1 08585U 76004A   26115.90176613 -.00000066  00000+0  00000+0 0  9992
2 08585   4.0642 272.7869 0011034 278.4874 237.2404  1.00201057121770
MOLNIYA 1-32            
1 08601U 76006A   26110.34438426  .00000591  00000+0  00000+0 0  9991
2 08601  63.6681 141.0638 6726124 276.7235  16.7115  2.00080066 80720
INTELSAT 4A-F2          
1 08620U 76010A   26115.90895949 -.00000220  00000+0  00000+0 0  9991
2 08620   8.0112 304.2581 0005702 313.6553 209.2585  0.99685695620098
ATLAS CENTAUR R/B       
1 08621U 76010B   26115.51423231 -.00000047  00000+0  69756-3 0  9994
2 08621  21.3819 121.8898 7172333 219.8400  68.2892  2.20733178284406
LES-8                   
1 08746U 76023A   26115.33691620 -.00000123  00000+0  00000+0 0  9993
2 08746  22.2997  37.7050 0031808 157.6703  35.1520  1.00268792129158
LES-9                   
1 08747U 76023B   26115.35977791 -.00000130  00000+0  00000+0 0  9990
2 08747  22.2614  37.7168 0023464 181.3134  20.8472  1.00274493129147
TITAN 3C TRANSTAGE R/B  
1 08751U 76023F   26115.60359763 -.00000338  00000+0  00000+0 0  9996
2 08751  21.7578  43.3710 0121153 104.5809  77.1096  0.98327528182691
