[{"OBJECT_NAME":"SYMPHONIE 2","OBJECT_ID":"1975-077A","EPOCH":"2026-04-25T18:29:38.597568","MEAN_MOTION":0.99985618,"ECCENTRICITY":0.0005639,"INCLINATION":4.1734,"RA_OF_ASC_NODE":275.2654,"ARG_OF_PERICENTER":58.8253,"MEAN_ANOMALY":319.9214,"EPHEMERIS_TYPE":0,"CLASSIFICATION_TYPE":"U","NORAD_CAT_ID":8132,"ELEMENT_SET_NO":999,"REV_AT_EPOCH":14193,"BSTAR":0,"MEAN_MOTION_DOT":-1.65e-6,"MEAN_MOTION_DDOT":0},{"OBJECT_NAME":"MOLNIYA 2-14","OBJECT_ID":"1975-081A","EPOCH":"2026-04-24T00:42:42.920352","MEAN_MOTION":2.0206079,"ECCENTRICITY":0.68505104,"INCLINATION":64.6612,"RA_OF_ASC_NODE":39.4114,"ARG_OF_PERICENTER":283.6649,"MEAN_ANOMALY":13.69,"EPHEMERIS_TYPE":0,"CLASSIFICATION_TYPE":"U","NORAD_CAT_ID":8195,"ELEMENT_SET_NO":999,"REV_AT_EPOCH":37131,"BSTAR":0,"MEAN_MOTION_DOT":1.031e-5,"MEAN_MOTION_DDOT":0},{"OBJECT_NAME":"INTELSAT 4A-F1","OBJECT_ID":"1975-091A","EPOCH":"2026-04-25T17:11:55.963680","MEAN_MOTION":0.99926789,"ECCENTRICITY":0.00037364,"INCLINATION":7.9815,"RA_OF_ASC_NODE":304.6663,"ARG_OF_PERICENTER":267.7064,"MEAN_ANOMALY":294.7498,"EPHEMERIS_TYPE":0,"CLASSIFICATION_TYPE":"U","NORAD_CAT_ID":8330,"ELEMENT_SET_NO":999,"REV_AT_EPOCH":12094,"BSTAR":0,"MEAN_MOTION_DOT":1.03e-6,"MEAN_MOTION_DDOT":0},{"OBJECT_NAME":"ATLAS CENTAUR R/B","OBJECT_ID":"1975-091B","EPOCH":"2026-04-25T08:59:16.513152","MEAN_MOTION":2.22312553,"ECCENTRICITY":0.72125866,"INCLINATION":21.4416,"RA_OF_ASC_NODE":182.7477,"ARG_OF_PERICENTER":131.5816,"MEAN_ANOMALY":317.4138,"EPHEMERIS_TYPE":0,"CLASSIFICATION_TYPE":"U","NORAD_CAT_ID":8331,"ELEMENT_SET_NO":999,"REV_AT_EPOCH":40762,"BSTAR":0.00014893641,"MEAN_MOTION_DOT":2.9e-7,"MEAN_MOTION_DDOT":0},{"OBJECT_NAME":"COSMOS 775","OBJECT_ID":"1975-097A","EPOCH":"2026-04-25T22:51:38.515968","MEAN_MOTION":1.00219138,"ECCENTRICITY":0.00110755,"INCLINATION":2.4935,"RA_OF_ASC_NODE":262.0329,"ARG_OF_PERICENTER":179.9695,"MEAN_ANOMALY":160.1761,"EPHEMERIS_TYPE":0,"CLASSIFICATION_TYPE":"U","NORAD_CAT_ID":8357,"ELEMENT_SET_NO":999,"REV_AT_EPOCH":13123,"BSTAR":0,"MEAN_MOTION_DOT":1.24e-6,"MEAN_MOTION_DDOT":0},{"OBJECT_NAME":"GOES 1 (SMS-C)","OBJECT_ID":"1975-100A","EPOCH":"2026-04-25T14:40:23.840256","MEAN_MOTION":1.00250049,"ECCENTRICITY":0.00041567,"INCLINATION":4.7412,"RA_OF_ASC_NODE":278.1276,"ARG_OF_PERICENTER":1.6477,"MEAN_ANOMALY":27.9665,"EPHEMERIS_TYPE":0,"CLASSIFICATION_TYPE":"U","NORAD_CAT_ID":8366,"ELEMENT_SET_NO":999,"REV_AT_EPOCH":18454,"BSTAR":0,"MEAN_MOTION_DOT":2.2e-7,"MEAN_MOTION_DDOT":0},{"OBJECT_NAME":"SATCOM 1","OBJECT_ID":"1975-117A","EPOCH":"2026-04-25T21:48:24.147648","MEAN_MOTION":0.99600342,"ECCENTRICITY":0.00131642,"INCLINATION":8.1026,"RA_OF_ASC_NODE":304.9681,"ARG_OF_PERICENTER":281.8589,"MEAN_ANOMALY":238.502,"EPHEMERIS_TYPE":0,"CLASSIFICATION_TYPE":"U","NORAD_CAT_ID":8476,"ELEMENT_SET_NO":999,"REV_AT_EPOCH":4584,"BSTAR":0,"MEAN_MOTION_DOT":-2.01e-6,"MEAN_MOTION_DDOT":0},{"OBJECT_NAME":"OPS 3165 (DSP 5)","OBJECT_ID":"1975-118A","EPOCH":"2026-04-25T20:47:38.544576","MEAN_MOTION":1.00485102,"ECCENTRICITY":0.00332301,"INCLINATION":2.4263,"RA_OF_ASC_NODE":259.3108,"ARG_OF_PERICENTER":27.6438,"MEAN_ANOMALY":281.541,"EPHEMERIS_TYPE":0,"CLASSIFICATION_TYPE":"U","NORAD_CAT_ID":8482,"ELEMENT_SET_NO":999,"REV_AT_EPOCH":2592,"BSTAR":0,"MEAN_MOTION_DOT":1.1e-6,"MEAN_MOTION_DDOT":0},{"OBJECT_NAME":"RADUGA 1","OBJECT_ID":"1975-123A","EPOCH":"2026-04-25T22:59:38.461920","MEAN_MOTION":1.00246473,"ECCENTRICITY":0.00041552,"INCLINATION":2.9362,"RA_OF_ASC_NODE":267.3304,"ARG_OF_PERICENTER":295.0227,"MEAN_ANOMALY":71.0502,"EPHEMERIS_TYPE":0,"CLASSIFICATION_TYPE":"U","NORAD_CAT_ID":8513,"ELEMENT_SET_NO":999,"REV_AT_EPOCH":19429,"BSTAR":0,"MEAN_MOTION_DOT":-9.3e-7,"MEAN_MOTION_DDOT":0},{"OBJECT_NAME":"TITAN 3C TRANSTAGE R/B","OBJECT_ID":"1975-118C","EPOCH":"2026-04-25T20:07:16.324896","MEAN_MOTION":1.00549825,"ECCENTRICITY":0.00115574,"INCLINATION":2.4036,"RA_OF_ASC_NODE":259.6291,"ARG_OF_PERICENTER":213.8794,"MEAN_ANOMALY":145.7945,"EPHEMERIS_TYPE":0,"CLASSIFICATION_TYPE":"U","NORAD_CAT_ID":8516,"ELEMENT_SET_NO":999,"REV_AT_EPOCH":2525,"BSTAR":0,"MEAN_MOTION_DOT":-3.64e-6,"MEAN_MOTION_DDOT":0},{"OBJECT_NAME":"CTS","OBJECT_ID":"1976-004A","EPOCH":"2026-04-25T21:38:32.593632","MEAN_MOTION":1.00201057,"ECCENTRICITY":0.00110347,"INCLINATION":4.0642,"RA_OF_ASC_NODE":272.7869,"ARG_OF_PERICENTER":278.4874,"MEAN_ANOMALY":237.2404,"EPHEMERIS_TYPE":0,"CLASSIFICATION_TYPE":"U","NORAD_CAT_ID":8585,"ELEMENT_SET_NO":999,"REV_AT_EPOCH":12177,"BSTAR":0,"MEAN_MOTION_DOT":-6.6e-7,"MEAN_MOTION_DDOT":0},{"OBJECT_NAME":"MOLNIYA 1-32","OBJECT_ID":"1976-006A","EPOCH":"2026-04-20T08:15:54.800064","MEAN_MOTION":2.00080066,"ECCENTRICITY":0.67261248,"INCLINATION":63.6681,"RA_OF_ASC_NODE":141.0638,"ARG_OF_PERICENTER":276.7235,"MEAN_ANOMALY":16.7115,"EPHEMERIS_TYPE":0,"CLASSIFICATION_TYPE":"U","NORAD_CAT_ID":8601,"ELEMENT_SET_NO":999,"REV_AT_EPOCH":8072,"BSTAR":0,"MEAN_MOTION_DOT":5.91e-6,"MEAN_MOTION_DDOT":0},{"OBJECT_NAME":"INTELSAT 4A-F2","OBJECT_ID":"1976-010A","EPOCH":"2026-04-25T21:48:54.099936","MEAN_MOTION":0.99685695,"ECCENTRICITY":0.00057026,"INCLINATION":8.0112,"RA_OF_ASC_NODE":304.2581,"ARG_OF_PERICENTER":313.6553,"MEAN_ANOMALY":209.2585,"EPHEMERIS_TYPE":0,"CLASSIFICATION_TYPE":"U","NORAD_CAT_ID":8620,"ELEMENT_SET_NO":999,"REV_AT_EPOCH":62009,"BSTAR":0,"MEAN_MOTION_DOT":-2.2e-6,"MEAN_MOTION_DDOT":0},{"OBJECT_NAME":"ATLAS CENTAUR R/B","OBJECT_ID":"1976-010B","EPOCH":"2026-04-25T12:20:29.671584","MEAN_MOTION":2.20733178,"ECCENTRICITY":0.71723335,"INCLINATION":21.3819,"RA_OF_ASC_NODE":121.8898,"ARG_OF_PERICENTER":219.84,"MEAN_ANOMALY":68.2892,"EPHEMERIS_TYPE":0,"CLASSIFICATION_TYPE":"U","NORAD_CAT_ID":8621,"ELEMENT_SET_NO":999,"REV_AT_EPOCH":28440,"BSTAR":0.00069756479,"MEAN_MOTION_DOT":-4.7e-7,"MEAN_MOTION_DDOT":0},{"OBJECT_NAME":"LES-8","OBJECT_ID":"1976-023A","EPOCH":"2026-04-25T08:05:09.559680","MEAN_MOTION":1.00268792,"ECCENTRICITY":0.00318082,"INCLINATION":22.2997,"RA_OF_ASC_NODE":37.705,"ARG_OF_PERICENTER":157.6703,"MEAN_ANOMALY":35.152,"EPHEMERIS_TYPE":0,"CLASSIFICATION_TYPE":"U","NORAD_CAT_ID":8746,"ELEMENT_SET_NO":999,"REV_AT_EPOCH":12915,"BSTAR":0,"MEAN_MOTION_DOT":-1.23e-6,"MEAN_MOTION_DDOT":0},{"OBJECT_NAME":"LES-9","OBJECT_ID":"1976-023B","EPOCH":"2026-04-25T08:38:04.811424","MEAN_MOTION":1.00274493,"ECCENTRICITY":0.0023464,"INCLINATION":22.2614,"RA_OF_ASC_NODE":37.7168,"ARG_OF_PERICENTER":181.3134,"MEAN_ANOMALY":20.8472,"EPHEMERIS_TYPE":0,"CLASSIFICATION_TYPE":"U","NORAD_CAT_ID":8747,"ELEMENT_SET_NO":999,"REV_AT_EPOCH":12914,"BSTAR":0,"MEAN_MOTION_DOT":-1.3e-6,"MEAN_MOTION_DDOT":0},{"OBJECT_NAME":"TITAN 3C TRANSTAGE R/B","OBJECT_ID":"1976-023F","EPOCH":"2026-04-25T14:29:10.835232","MEAN_MOTION":0.98327528,"ECCENTRICITY":0.01211537,"INCLINATION":21.7578,"RA_OF_ASC_NODE":43.371,"ARG_OF_PERICENTER":104.5809,"MEAN_ANOMALY":77.1096,"EPHEMERIS_TYPE":0,"CLASSIFICATION_TYPE":"U","NORAD_CAT_ID":8751,"ELEMENT_SET_NO":999,"REV_AT_EPOCH":18269,"BSTAR":0,"MEAN_MOTION_DOT":-3.38e-6,"MEAN_MOTION_DDOT":0}]
